CCSDS_OMM_VERS = 2.0
CREATION_DATE  = 
ORIGINATOR     = 

OBJECT_NAME    = STARLINK-36654
OBJECT_ID      = 2026-033T
CENTER_NAME    = EARTH
REF_FRAME      = TEME
TIME_SYSTEM    = UTC
MEAN_ELEMENT_THEORY = SGP/SGP4

EPOCH          = 2026-03-09T23:57:06.388704
MEAN_MOTION    = 15.82089282
ECCENTRICITY   = .00022021
INCLINATION    = 42.9985
RA_OF_ASC_NODE = 269.4636
ARG_OF_PERICENTER = 257.7916
MEAN_ANOMALY   = 102.2710

EPHEMERIS_TYPE = 0
CLASSIFICATION_TYPE = U
NORAD_CAT_ID   = 67838
ELEMENT_SET_NO = 999
REV_AT_EPOCH   = 467
BSTAR          = .11876525E-2
MEAN_MOTION_DOT = .258028E-2
MEAN_MOTION_DDOT = 0

CCSDS_OMM_VERS = 2.0
CREATION_DATE  = 
ORIGINATOR     = 

OBJECT_NAME    = STARLINK-36652
OBJECT_ID      = 2026-033U
CENTER_NAME    = EARTH
REF_FRAME      = TEME
TIME_SYSTEM    = UTC
MEAN_ELEMENT_THEORY = SGP/SGP4

EPOCH          = 2026-03-09T23:56:01.784832
MEAN_MOTION    = 15.82144627
ECCENTRICITY   = .00020962
INCLINATION    = 42.9981
RA_OF_ASC_NODE = 269.4578
ARG_OF_PERICENTER = 257.5916
MEAN_ANOMALY   = 102.4721

EPHEMERIS_TYPE = 0
CLASSIFICATION_TYPE = U
NORAD_CAT_ID   = 67839
ELEMENT_SET_NO = 999
REV_AT_EPOCH   = 467
BSTAR          = .15765583E-2
MEAN_MOTION_DOT = .347178E-2
MEAN_MOTION_DDOT = 0

CCSDS_OMM_VERS = 2.0
CREATION_DATE  = 
ORIGINATOR     = 

OBJECT_NAME    = STARLINK-36651
OBJECT_ID      = 2026-033V
CENTER_NAME    = EARTH
REF_FRAME      = TEME
TIME_SYSTEM    = UTC
MEAN_ELEMENT_THEORY = SGP/SGP4

EPOCH          = 2026-03-09T23:54:56.980512
MEAN_MOTION    = 15.82130970
ECCENTRICITY   = .00025182
INCLINATION    = 42.9981
RA_OF_ASC_NODE = 269.4510
ARG_OF_PERICENTER = 252.6679
MEAN_ANOMALY   = 107.3917

EPHEMERIS_TYPE = 0
CLASSIFICATION_TYPE = U
NORAD_CAT_ID   = 67840
ELEMENT_SET_NO = 999
REV_AT_EPOCH   = 467
BSTAR          = .14837667E-2
MEAN_MOTION_DOT = .325692E-2
MEAN_MOTION_DDOT = 0

CCSDS_OMM_VERS = 2.0
CREATION_DATE  = 
ORIGINATOR     = 

OBJECT_NAME    = STARLINK-36656
OBJECT_ID      = 2026-033W
CENTER_NAME    = EARTH
REF_FRAME      = TEME
TIME_SYSTEM    = UTC
MEAN_ELEMENT_THEORY = SGP/SGP4

EPOCH          = 2026-03-09T23:53:52.236672
MEAN_MOTION    = 15.82144181
ECCENTRICITY   = .00020218
INCLINATION    = 42.9978
RA_OF_ASC_NODE = 269.4454
ARG_OF_PERICENTER = 263.4794
MEAN_ANOMALY   = 96.5848

EPHEMERIS_TYPE = 0
CLASSIFICATION_TYPE = U
NORAD_CAT_ID   = 67841
ELEMENT_SET_NO = 999
REV_AT_EPOCH   = 467
BSTAR          = .16030487E-2
MEAN_MOTION_DOT = .353265E-2
MEAN_MOTION_DDOT = 0

CCSDS_OMM_VERS = 2.0
CREATION_DATE  = 
ORIGINATOR     = 

OBJECT_NAME    = STARLINK-36653
OBJECT_ID      = 2026-033X
CENTER_NAME    = EARTH
REF_FRAME      = TEME
TIME_SYSTEM    = UTC
MEAN_ELEMENT_THEORY = SGP/SGP4

EPOCH          = 2026-03-09T23:52:47.734752
MEAN_MOTION    = 15.82138174
ECCENTRICITY   = .00020292
INCLINATION    = 42.9979
RA_OF_ASC_NODE = 269.4392
ARG_OF_PERICENTER = 262.9645
MEAN_ANOMALY   = 97.0996

EPHEMERIS_TYPE = 0
CLASSIFICATION_TYPE = U
NORAD_CAT_ID   = 67842
ELEMENT_SET_NO = 999
REV_AT_EPOCH   = 467
BSTAR          = .16836274E-2
MEAN_MOTION_DOT = .371748E-2
MEAN_MOTION_DDOT = 0

CCSDS_OMM_VERS = 2.0
CREATION_DATE  = 
ORIGINATOR     = 

OBJECT_NAME    = STARLINK-36589
OBJECT_ID      = 2026-033Y
CENTER_NAME    = EARTH
REF_FRAME      = TEME
TIME_SYSTEM    = UTC
MEAN_ELEMENT_THEORY = SGP/SGP4

EPOCH          = 2026-03-09T23:51:42.888096
MEAN_MOTION    = 15.82116261
ECCENTRICITY   = .00020865
INCLINATION    = 42.9977
RA_OF_ASC_NODE = 269.4323
ARG_OF_PERICENTER = 250.8603
MEAN_ANOMALY   = 109.2043

EPHEMERIS_TYPE = 0
CLASSIFICATION_TYPE = U
NORAD_CAT_ID   = 67843
ELEMENT_SET_NO = 999
REV_AT_EPOCH   = 467
BSTAR          = .12612835E-2
MEAN_MOTION_DOT = .274945E-2
MEAN_MOTION_DDOT = 0

CCSDS_OMM_VERS = 2.0
CREATION_DATE  = 
ORIGINATOR     = 

OBJECT_NAME    = STARLINK-36598
OBJECT_ID      = 2026-033Z
CENTER_NAME    = EARTH
REF_FRAME      = TEME
TIME_SYSTEM    = UTC
MEAN_ELEMENT_THEORY = SGP/SGP4

EPOCH          = 2026-03-09T23:50:38.265216
MEAN_MOTION    = 15.82154324
ECCENTRICITY   = .00020482
INCLINATION    = 42.9981
RA_OF_ASC_NODE = 269.4275
ARG_OF_PERICENTER = 271.9135
MEAN_ANOMALY   = 88.1502

EPHEMERIS_TYPE = 0
CLASSIFICATION_TYPE = U
NORAD_CAT_ID   = 67844
ELEMENT_SET_NO = 999
REV_AT_EPOCH   = 467
BSTAR          = .17829959E-2
MEAN_MOTION_DOT = .395096E-2
MEAN_MOTION_DDOT = 0

CCSDS_OMM_VERS = 2.0
CREATION_DATE  = 
ORIGINATOR     = 

OBJECT_NAME    = STARLINK-36606
OBJECT_ID      = 2026-033AA
CENTER_NAME    = EARTH
REF_FRAME      = TEME
TIME_SYSTEM    = UTC
MEAN_ELEMENT_THEORY = SGP/SGP4

EPOCH          = 2026-03-09T22:18:39.690720
MEAN_MOTION    = 15.82133261
ECCENTRICITY   = .0001334
INCLINATION    = 42.9978
RA_OF_ASC_NODE = 269.8070
ARG_OF_PERICENTER = 333.7804
MEAN_ANOMALY   = 26.3000

EPHEMERIS_TYPE = 0
CLASSIFICATION_TYPE = U
NORAD_CAT_ID   = 67845
ELEMENT_SET_NO = 999
REV_AT_EPOCH   = 466
BSTAR          = .21531E-2
MEAN_MOTION_DOT = .481643E-2
MEAN_MOTION_DDOT = 0

CCSDS_OMM_VERS = 2.0
CREATION_DATE  = 
ORIGINATOR     = 

OBJECT_NAME    = STARLINK-36658
OBJECT_ID      = 2026-033AB
CENTER_NAME    = EARTH
REF_FRAME      = TEME
TIME_SYSTEM    = UTC
MEAN_ELEMENT_THEORY = SGP/SGP4

EPOCH          = 2026-03-09T23:48:28.864800
MEAN_MOTION    = 15.82092186
ECCENTRICITY   = .00021905
INCLINATION    = 42.9978
RA_OF_ASC_NODE = 269.4153
ARG_OF_PERICENTER = 282.2073
MEAN_ANOMALY   = 77.8554

EPHEMERIS_TYPE = 0
CLASSIFICATION_TYPE = U
NORAD_CAT_ID   = 67846
ELEMENT_SET_NO = 999
REV_AT_EPOCH   = 467
BSTAR          = .11002843E-2
MEAN_MOTION_DOT = .238496E-2
MEAN_MOTION_DDOT = 0

CCSDS_OMM_VERS = 2.0
CREATION_DATE  = 
ORIGINATOR     = 

OBJECT_NAME    = STARLINK-36618
OBJECT_ID      = 2026-033AC
CENTER_NAME    = EARTH
REF_FRAME      = TEME
TIME_SYSTEM    = UTC
MEAN_ELEMENT_THEORY = SGP/SGP4

EPOCH          = 2026-03-10T00:00:02.999808
MEAN_MOTION    = 15.91496715
ECCENTRICITY   = .00023384
INCLINATION    = 42.9823
RA_OF_ASC_NODE = 267.1174
ARG_OF_PERICENTER = 281.7808
MEAN_ANOMALY   = 290.3063

EPHEMERIS_TYPE = 0
CLASSIFICATION_TYPE = U
NORAD_CAT_ID   = 67847
ELEMENT_SET_NO = 999
REV_AT_EPOCH   = 471
BSTAR          = .17157185E-3
MEAN_MOTION_DOT = .54984E-3
MEAN_MOTION_DDOT = .9484428E-5

CCSDS_OMM_VERS = 2.0
CREATION_DATE  = 
ORIGINATOR     = 

OBJECT_NAME    = STARLINK-36660
OBJECT_ID      = 2026-033AD
CENTER_NAME    = EARTH
REF_FRAME      = TEME
TIME_SYSTEM    = UTC
MEAN_ELEMENT_THEORY = SGP/SGP4

EPOCH          = 2026-03-09T22:16:30.083808
MEAN_MOTION    = 15.82182214
ECCENTRICITY   = .0002123
INCLINATION    = 42.9975
RA_OF_ASC_NODE = 269.7949
ARG_OF_PERICENTER = 306.3567
MEAN_ANOMALY   = 53.7109

EPHEMERIS_TYPE = 0
CLASSIFICATION_TYPE = U
NORAD_CAT_ID   = 67848
ELEMENT_SET_NO = 999
REV_AT_EPOCH   = 466
BSTAR          = .25923E-2
MEAN_MOTION_DOT = .588643E-2
MEAN_MOTION_DDOT = 0

CCSDS_OMM_VERS = 2.0
CREATION_DATE  = 
ORIGINATOR     = 

OBJECT_NAME    = STARLINK-36602
OBJECT_ID      = 2026-033AE
CENTER_NAME    = EARTH
REF_FRAME      = TEME
TIME_SYSTEM    = UTC
MEAN_ELEMENT_THEORY = SGP/SGP4

EPOCH          = 2026-03-09T23:46:19.032384
MEAN_MOTION    = 15.82121863
ECCENTRICITY   = .00021397
INCLINATION    = 42.9975
RA_OF_ASC_NODE = 269.4026
ARG_OF_PERICENTER = 256.5139
MEAN_ANOMALY   = 103.5494

EPHEMERIS_TYPE = 0
CLASSIFICATION_TYPE = U
NORAD_CAT_ID   = 67849
ELEMENT_SET_NO = 999
REV_AT_EPOCH   = 467
BSTAR          = .12641995E-2
MEAN_MOTION_DOT = .275679E-2
MEAN_MOTION_DDOT = 0

